start=new Date('2023-02-10T00:00:00.000Z').valueOf();
sats=[{"MEAN_ANOMALY":"290.7079","NORAD_CAT_ID":"47873","EPHEMERIS_TYPE":"0","REV_AT_EPOCH":"10694","RCS_SIZE":"LARGE","ELEMENT_SET_NO":"999","BSTAR":"0.00022389000000","EPOCH":"2023-02-09T21:37:46.407648","ARG_OF_PERICENTER":"69.4047","CENTER_NAME":"EARTH","PERIAPSIS":"546.323","REF_FRAME":"TEME","MEAN_MOTION_DDOT":"0.0000000000000","OBJECT_ID":"2021-021P","MEAN_MOTION_DOT":"0.00003055","TIME_SYSTEM":"UTC","TLE_LINE2":"2 47873  53.0552 266.4964 0001283  69.4047 290.7079 15.06400805106945","FILE":"3783241","MEAN_ELEMENT_THEORY":"SGP4","SEMIMAJOR_AXIS":"6925.346","COUNTRY_CODE":"US","ECCENTRICITY":"0.00012830","RA_OF_ASC_NODE":"266.4964","LAUNCH_DATE":"2021-03-14","DECAY_DATE":null,"MEAN_MOTION":"15.06400805","TLE_LINE1":"1 47873U 21021P   23040.90123157  .00003055  00000-0  22389-3 0  9992","APOAPSIS":"548.100","SITE":"AFETR","PERIOD":"95.592","INCLINATION":"53.0552","CLASSIFICATION_TYPE":"U","OBJECT_NAME":"STARLINK-2329","OBJECT_TYPE":"PAYLOAD","GP_ID":"224957502"},{"CLASSIFICATION_TYPE":"U","OBJECT_NAME":"STARLINK-2330","INCLINATION":"53.0529","PERIOD":"95.592","SITE":"AFETR","GP_ID":"224958249","OBJECT_TYPE":"PAYLOAD","RA_OF_ASC_NODE":"221.7633","ECCENTRICITY":"0.00011400","LAUNCH_DATE":"2021-03-14","MEAN_MOTION":"15.06404592","DECAY_DATE":null,"APOAPSIS":"547.989","TLE_LINE1":"1 47874U 21021Q   23040.84455439  .00001684  00000-0  13191-3 0  9994","PERIAPSIS":"546.410","CENTER_NAME":"EARTH","OBJECT_ID":"2021-021Q","REF_FRAME":"TEME","MEAN_MOTION_DDOT":"0.0000000000000","TLE_LINE2":"2 47874  53.0529 221.7633 0001140  85.0302 275.0817 15.06404592107570","TIME_SYSTEM":"UTC","MEAN_MOTION_DOT":"0.00001684","COUNTRY_CODE":"US","SEMIMAJOR_AXIS":"6925.334","FILE":"3783241","MEAN_ELEMENT_THEORY":"SGP4","REV_AT_EPOCH":"10757","NORAD_CAT_ID":"47874","EPHEMERIS_TYPE":"0","MEAN_ANOMALY":"275.0817","RCS_SIZE":"LARGE","ELEMENT_SET_NO":"999","BSTAR":"0.00013191000000","EPOCH":"2023-02-09T20:16:09.499296","ARG_OF_PERICENTER":"85.0302"},{"CLASSIFICATION_TYPE":"U","OBJECT_NAME":"STARLINK-2331","PERIOD":"95.592","INCLINATION":"53.0524","SITE":"AFETR","GP_ID":"224956507","OBJECT_TYPE":"PAYLOAD","LAUNCH_DATE":"2021-03-14","RA_OF_ASC_NODE":"276.8407","ECCENTRICITY":"0.00010790","APOAPSIS":"547.964","TLE_LINE1":"1 47875U 21021R   23040.82659083  .00003548  00000-0  25697-3 0  9999","MEAN_MOTION":"15.06398931","DECAY_DATE":null,"OBJECT_ID":"2021-021R","REF_FRAME":"TEME","MEAN_MOTION_DDOT":"0.0000000000000","PERIAPSIS":"546.470","CENTER_NAME":"EARTH","COUNTRY_CODE":"US","SEMIMAJOR_AXIS":"6925.352","MEAN_ELEMENT_THEORY":"SGP4","FILE":"3783241","TLE_LINE2":"2 47875  53.0524 276.8407 0001079  99.3743 260.7368 15.06398931106855","TIME_SYSTEM":"UTC","MEAN_MOTION_DOT":"0.00003548","ELEMENT_SET_NO":"999","RCS_SIZE":"LARGE","BSTAR":"0.00025697000000","REV_AT_EPOCH":"10685","NORAD_CAT_ID":"47875","EPHEMERIS_TYPE":"0","MEAN_ANOMALY":"260.7368","ARG_OF_PERICENTER":"99.3743","EPOCH":"2023-02-09T19:50:17.447712"},{"LAUNCH_DATE":"2021-03-14","ECCENTRICITY":"0.00009720","RA_OF_ASC_NODE":"276.8845","APOAPSIS":"547.914","TLE_LINE1":"1 47876U 21021S   23040.81553147 -.00000516  00000-0 -15760-4 0  9998","MEAN_MOTION":"15.06391243","DECAY_DATE":null,"PERIOD":"95.593","INCLINATION":"53.0538","SITE":"AFETR","CLASSIFICATION_TYPE":"U","OBJECT_NAME":"STARLINK-2332","GP_ID":"224956757","OBJECT_TYPE":"PAYLOAD","ELEMENT_SET_NO":"999","RCS_SIZE":"LARGE","BSTAR":"-0.00001576000000","MEAN_ANOMALY":"261.4037","REV_AT_EPOCH":"10680","EPHEMERIS_TYPE":"0","NORAD_CAT_ID":"47876","ARG_OF_PERICENTER":"98.7062","EPOCH":"2023-02-09T19:34:21.919008","OBJECT_ID":"2021-021S","REF_FRAME":"TEME","MEAN_MOTION_DDOT":"0.0000000000000","PERIAPSIS":"546.567","CENTER_NAME":"EARTH","MEAN_ELEMENT_THEORY":"SGP4","FILE":"3783241","COUNTRY_CODE":"US","SEMIMAJOR_AXIS":"6925.375","TLE_LINE2":"2 47876  53.0538 276.8845 0000972  98.7062 261.4037 15.06391243106800","TIME_SYSTEM":"UTC","MEAN_MOTION_DOT":"-0.00000516"},{"ARG_OF_PERICENTER":"94.8494","EPOCH":"2023-02-09T19:55:35.709024","RCS_SIZE":"LARGE","BSTAR":"0.00052057000000","ELEMENT_SET_NO":"999","REV_AT_EPOCH":"10679","NORAD_CAT_ID":"47877","EPHEMERIS_TYPE":"0","MEAN_ANOMALY":"265.2610","COUNTRY_CODE":"US","SEMIMAJOR_AXIS":"6925.337","FILE":"3783241","MEAN_ELEMENT_THEORY":"SGP4","TIME_SYSTEM":"UTC","TLE_LINE2":"2 47877  53.0506 276.8264 0001013  94.8494 265.2610 15.06403895106798","MEAN_MOTION_DOT":"0.00007482","OBJECT_ID":"2021-021T","MEAN_MOTION_DDOT":"0.0000000000000","REF_FRAME":"TEME","PERIAPSIS":"546.500","CENTER_NAME":"EARTH","APOAPSIS":"547.903","TLE_LINE1":"1 47877U 21021T   23040.83027441  .00007482  00000-0  52057-3 0  9990","MEAN_MOTION":"15.06403895","DECAY_DATE":null,"LAUNCH_DATE":"2021-03-14","RA_OF_ASC_NODE":"276.8264","ECCENTRICITY":"0.00010130","GP_ID":"224958002","OBJECT_TYPE":"PAYLOAD","CLASSIFICATION_TYPE":"U","OBJECT_NAME":"STARLINK-2333","PERIOD":"95.592","INCLINATION":"53.0506","SITE":"AFETR"},{"MEAN_MOTION_DOT":"0.00002138","TLE_LINE2":"2 47878  53.0515 276.4749 0001134  92.3298 267.7821 15.06398742106607","TIME_SYSTEM":"UTC","SEMIMAJOR_AXIS":"6925.352","COUNTRY_CODE":"US","MEAN_ELEMENT_THEORY":"SGP4","FILE":"3783241","CENTER_NAME":"EARTH","PERIAPSIS":"546.432","MEAN_MOTION_DDOT":"0.0000000000000","REF_FRAME":"TEME","OBJECT_ID":"2021-021U","EPOCH":"2023-02-09T21:47:03.688512","ARG_OF_PERICENTER":"92.3298","EPHEMERIS_TYPE":"0","NORAD_CAT_ID":"47878","REV_AT_EPOCH":"10660","MEAN_ANOMALY":"267.7821","BSTAR":"0.00016236000000","RCS_SIZE":"LARGE","ELEMENT_SET_NO":"999","OBJECT_TYPE":"PAYLOAD","GP_ID":"224957750","OBJECT_NAME":"STARLINK-2335","CLASSIFICATION_TYPE":"U","SITE":"AFETR","PERIOD":"95.592","INCLINATION":"53.0515","DECAY_DATE":null,"MEAN_MOTION":"15.06398742","TLE_LINE1":"1 47878U 21021U   23040.90768158  .00002138  00000-0  16236-3 0  9998","APOAPSIS":"548.003","RA_OF_ASC_NODE":"276.4749","ECCENTRICITY":"0.00011340","LAUNCH_DATE":"2021-03-14"},{"OBJECT_ID":"2021-021V","REF_FRAME":"TEME","MEAN_MOTION_DDOT":"0.0000000000000","PERIAPSIS":"546.293","CENTER_NAME":"EARTH","MEAN_ELEMENT_THEORY":"SGP4","FILE":"3783241","COUNTRY_CODE":"US","SEMIMAJOR_AXIS":"6925.389","TLE_LINE2":"2 47879  53.0527 291.7878 0001388 113.2064 246.9071 15.06386804106768","TIME_SYSTEM":"UTC","MEAN_MOTION_DOT":"0.00003401","ELEMENT_SET_NO":"999","RCS_SIZE":"LARGE","BSTAR":"0.00024716000000","MEAN_ANOMALY":"246.9071","REV_AT_EPOCH":"10676","EPHEMERIS_TYPE":"0","NORAD_CAT_ID":"47879","ARG_OF_PERICENTER":"113.2064","EPOCH":"2023-02-09T20:06:52.723872","INCLINATION":"53.0527","PERIOD":"95.593","SITE":"AFETR","CLASSIFICATION_TYPE":"U","OBJECT_NAME":"STARLINK-2336","GP_ID":"224957007","OBJECT_TYPE":"PAYLOAD","LAUNCH_DATE":"2021-03-14","RA_OF_ASC_NODE":"291.7878","ECCENTRICITY":"0.00013880","APOAPSIS":"548.215","TLE_LINE1":"1 47879U 21021V   23040.83811023  .00003401  00000-0  24716-3 0  9997","MEAN_MOTION":"15.06386804","DECAY_DATE":null},{"GP_ID":"224909054","OBJECT_TYPE":"PAYLOAD","PERIOD":"95.592","INCLINATION":"53.0525","SITE":"AFETR","CLASSIFICATION_TYPE":"U","OBJECT_NAME":"STARLINK-2337","APOAPSIS":"548.049","TLE_LINE1":"1 47880U 21021W   23040.08109976  .00001171  00000-0  97437-4 0  9996","MEAN_MOTION":"15.06408521","DECAY_DATE":null,"LAUNCH_DATE":"2021-03-14","ECCENTRICITY":"0.00012440","RA_OF_ASC_NODE":"290.1878","MEAN_ELEMENT_THEORY":"SGP4","FILE":"3782313","COUNTRY_CODE":"US","SEMIMAJOR_AXIS":"6925.322","TLE_LINE2":"2 47880  53.0525 290.1878 0001244  93.8904 266.2227 15.06408521106543","TIME_SYSTEM":"UTC","MEAN_MOTION_DOT":"0.00001171","OBJECT_ID":"2021-021W","MEAN_MOTION_DDOT":"0.0000000000000","REF_FRAME":"TEME","PERIAPSIS":"546.326","CENTER_NAME":"EARTH","ARG_OF_PERICENTER":"93.8904","EPOCH":"2023-02-09T01:56:47.019264","RCS_SIZE":"LARGE","ELEMENT_SET_NO":"999","BSTAR":"0.00009743700000","MEAN_ANOMALY":"266.2227","REV_AT_EPOCH":"10654","NORAD_CAT_ID":"47880","EPHEMERIS_TYPE":"0"},{"GP_ID":"224930152","OBJECT_TYPE":"PAYLOAD","INCLINATION":"53.0543","PERIOD":"95.593","SITE":"AFETR","CLASSIFICATION_TYPE":"U","OBJECT_NAME":"STARLINK-2339","APOAPSIS":"547.918","TLE_LINE1":"1 47881U 21021X   23040.83672865 -.00000472  00000-0 -12813-4 0  9992","MEAN_MOTION":"15.06387883","DECAY_DATE":null,"LAUNCH_DATE":"2021-03-14","ECCENTRICITY":"0.00009640","RA_OF_ASC_NODE":"286.7837","FILE":"3782943","MEAN_ELEMENT_THEORY":"SGP4","COUNTRY_CODE":"US","SEMIMAJOR_AXIS":"6925.386","TIME_SYSTEM":"UTC","TLE_LINE2":"2 47881  53.0543 286.7837 0000964  77.8934 282.2163 15.06387883106187","MEAN_MOTION_DOT":"-0.00000472","OBJECT_ID":"2021-021X","MEAN_MOTION_DDOT":"0.0000000000000","REF_FRAME":"TEME","PERIAPSIS":"546.583","CENTER_NAME":"EARTH","ARG_OF_PERICENTER":"77.8934","EPOCH":"2023-02-09T20:04:53.355360","RCS_SIZE":"LARGE","ELEMENT_SET_NO":"999","BSTAR":"-0.00001281300000","MEAN_ANOMALY":"282.2163","REV_AT_EPOCH":"10618","EPHEMERIS_TYPE":"0","NORAD_CAT_ID":"47881"},{"MEAN_ANOMALY":"248.8800","EPHEMERIS_TYPE":"0","NORAD_CAT_ID":"47882","REV_AT_EPOCH":"10632","ELEMENT_SET_NO":"999","RCS_SIZE":"LARGE","BSTAR":"0.00102290000000","EPOCH":"2023-02-09T19:29:03.504768","ARG_OF_PERICENTER":"111.2286","CENTER_NAME":"EARTH","PERIAPSIS":"546.591","REF_FRAME":"TEME","MEAN_MOTION_DDOT":"0.0000000000000","OBJECT_ID":"2021-021Y","MEAN_MOTION_DOT":"0.00014986","TIME_SYSTEM":"UTC","TLE_LINE2":"2 47882  53.0529 276.9036 0000911 111.2286 248.8800 15.06397234106322","MEAN_ELEMENT_THEORY":"SGP4","FILE":"3782943","SEMIMAJOR_AXIS":"6925.357","COUNTRY_CODE":"US","RA_OF_ASC_NODE":"276.9036","ECCENTRICITY":"0.00009110","LAUNCH_DATE":"2021-03-14","DECAY_DATE":null,"MEAN_MOTION":"15.06397234","TLE_LINE1":"1 47882U 21021Y   23040.81184612  .00014986  00000-0  10229-2 0  9999","APOAPSIS":"547.853","SITE":"AFETR","PERIOD":"95.592","INCLINATION":"53.0529","CLASSIFICATION_TYPE":"U","OBJECT_NAME":"STARLINK-2340","OBJECT_TYPE":"PAYLOAD","GP_ID":"224929927"}];
